[{"OBJECT_NAME":"BIFROST-DNK","OBJECT_ID":"2025-135BN","EPOCH":"2026-03-09T21:47:05.760384","MEAN_MOTION":14.94084434,"ECCENTRICITY":0.000349,"INCLINATION":97.761,"RA_OF_ASC_NODE":184.6338,"ARG_OF_PERICENTER":330.8145,"MEAN_ANOMALY":29.288,"EPHEMERIS_TYPE":0,"CLASSIFICATION_TYPE":"U","NORAD_CAT_ID":64588,"ELEMENT_SET_NO":999,"REV_AT_EPOCH":3908,"BSTAR":0.00037926768,"MEAN_MOTION_DOT":3.996e-5,"MEAN_MOTION_DDOT":0},{"OBJECT_NAME":"AIST-1 (RS41)","OBJECT_ID":"2013-078C","EPOCH":"2026-03-09T23:05:53.785248","MEAN_MOTION":14.95763496,"ECCENTRICITY":0.00150774,"INCLINATION":82.4188,"RA_OF_ASC_NODE":6.9784,"ARG_OF_PERICENTER":249.0877,"MEAN_ANOMALY":110.8731,"EPHEMERIS_TYPE":0,"CLASSIFICATION_TYPE":"U","NORAD_CAT_ID":39492,"ELEMENT_SET_NO":999,"REV_AT_EPOCH":66041,"BSTAR":0.00019220788,"MEAN_MOTION_DOT":2.171e-5,"MEAN_MOTION_DDOT":0}]
